42959,IRIDIUM 119,2017,100.4,860.0,+,86.39,Active,1,LEO,USA,USA,Commercial/Government,Communications,Falcon,1 42959U 17061E   24285.72188371  .00000687  00000+0  23830-3 0  9991,2 42959  86.3909 281.5888 0002259 100.1428 260.0023 14.34216973366884,14.34216973,0.0002259,LEO
42960,IRIDIUM 107,2017,100.4,860.0,+,86.39,Active,1,LEO,USA,USA,Commercial/Government,Communications,Falcon,1 42960U 17061F   24285.53160562  .00000018  00000+0 -73258-6 0  9995,2 42960  86.3907 281.6864 0002336  98.4749 261.6712 14.34217324366861,14.34217324,0.0002336,LEO
42961,IRIDIUM 132,2017,100.4,860.0,+,86.39,Active,1,LEO,USA,USA,Commercial/Government,Communications,Falcon,1 42961U 17061G   24285.74725430  .00000099  00000+0  28448-4 0  9997,2 42961  86.3907 281.5796 0002588  98.1481 262.0008 14.34217907366897,14.34217907,0.0002588,LEO
42962,IRIDIUM 136,2017,100.4,860.0,+,86.39,Active,1,LEO,USA,USA,Commercial/Government,Communications,Falcon,1 42962U 17061H   24285.49988812  .00000323  00000+0  10844-3 0  9995,2 42962  86.3908 281.6873 0002129  92.1382 268.0058 14.34220475366874,14.34220475,0.0002129,LEO
42963,IRIDIUM 139,2017,100.4,860.0,+,86.39,Active,1,LEO,USA,USA,Commercial/Government,Communications,Falcon,1 42963U 17061J   24285.85507877  .00000892  00000+0  31131-3 0  9997,2 42963  86.3911 281.5904 0002483  97.5391 262.6087 14.34217400366938,14.342174,0.0002483,LEO
42964,IRIDIUM 125,2017,100.4,860.0,+,86.39,Active,1,LEO,USA,USA,Commercial/Government,Communications,Falcon,1 42964U 17061K   24286.05169880 -.00000043  00000+0 -22355-4 0  9998,2 42964  86.3910 281.5582 0002024 107.4652 252.6765 14.34216842366977,14.34216842,0.0002024,LEO
43070,IRIDIUM 135,2017,100.4,860.0,+,86.4,Active,1,LEO,USA,USA,Commercial/Government,Communications,Falcon,1 43070U 17083A   24285.74673853  .00002174  00000+0  76878-3 0  9999,2 43070  86.4003 218.3417 0002462  76.1728 283.9741 14.34231219356220,14.34231219,0.0002462,LEO
43071,IRIDIUM 138,2017,100.4,860.0,+,86.4,Active,1,LEO,USA,USA,Commercial/Government,Communications,Falcon,1 43071U 17083B   24285.84188750  .00001663  00000+0  58668-3 0  9997,2 43071  86.3998 218.0050 0001679  86.8318 273.3070 14.34211108356228,14.34211108,0.0001679,LEO
